STARLINK-34926          
1 65194U 25175W   26168.10163700  .00003082  00000+0  21743-3 0  9998
2 65194  97.3533  39.7285 0002468  88.0382 272.1128 15.05659699 47571
STARLINK-34928          
1 65195U 25175X   26168.10440413  .00003701  00000+0  26026-3 0  9995
2 65195  97.3531  39.7239 0002602  73.9602 286.1912 15.05661574 47602
STARLINK-34927          
1 65196U 25175Y   26167.91056719  .00004019  00000+0  28227-3 0  9994
2 65196  97.3525  39.5299 0002280  87.8529 272.2960 15.05659252 47579
STARLINK-34952          
1 65197U 25175Z   26167.57550650  .00004868  00000+0  34098-3 0  9995
2 65197  97.3549  39.2154 0002598  84.1069 276.0455 15.05664100 47528
STARLINK-34981          
1 65198U 25176A   26167.99216429  .00013737  00000+0  47492-3 0  9993
2 65198  53.1590  54.3414 0001311  77.4320 282.6827 15.30210612 48282
STARLINK-34821          
1 65199U 25176B   26167.97337244  .00026698  00000+0  79820-3 0  9991
2 65199  53.1586  49.9857 0001033  97.7035 262.4085 15.34411246 48279
STARLINK-34865          
1 65200U 25176C   26167.95873279  .00030528  00000+0  91030-3 0  9999
2 65200  53.1598  50.6046 0001288  83.2568 276.8581 15.34423125 48333
STARLINK-34843          
1 65201U 25176D   26167.98809998  .00027032  00000+0  80839-3 0  9991
2 65201  53.1594  50.0705 0001230  88.5456 271.5687 15.34396194 48342
STARLINK-34905          
1 65202U 25176E   26167.99020464  .00013076  00000+0  39744-3 0  9998
2 65202  53.1583  50.0849 0001181  74.3175 285.7958 15.34402729 48346
STARLINK-34914          
1 65203U 25176F   26167.98599846  .00014565  00000+0  44127-3 0  9998
2 65203  53.1588  50.0592 0001513  82.4170 277.7005 15.34405723 48342
STARLINK-34787          
1 65204U 25176G   26167.97126698  .00032536  00000+0  96959-3 0  9997
2 65204  53.1586  49.9655 0001224 101.0225 259.0915 15.34410071 48341
STARLINK-34796          
1 65205U 25176H   26167.94400520  .00030538  00000+0  91066-3 0  9998
2 65205  53.1612  50.5110 0001470  82.5628 277.5542 15.34421278 48330
STARLINK-34763          
1 65206U 25176J   26167.93979661  .00025084  00000+0  75107-3 0  9993
2 65206  53.1606  50.4804 0001026  78.8132 281.2986 15.34399548 48325
STARLINK-34901          
1 65207U 25176K   26167.95452381  .00029239  00000+0  87252-3 0  9991
2 65207  53.1601  50.5747 0001051  93.7892 266.3231 15.34422444 48335
STARLINK-34841          
1 65208U 25176L   26167.98389507  .00019019  00000+0  57233-3 0  9995
2 65208  53.1589  50.0521 0001448  92.2992 267.8176 15.34415430 48343
STARLINK-34976          
1 65209U 25176M   26167.93769565  .00027683  00000+0  82749-3 0  9993
2 65209  53.1599  50.4652 0001271  96.6732 263.4415 15.34397964 48336
STARLINK-34941          
1 65210U 25176N   26167.95242264  .00028738  00000+0  85797-3 0  9997
2 65210  53.1605  50.5618 0001324  81.1541 278.9611 15.34416817 48333
STARLINK-34847          
1 65211U 25176P   26167.99046274  .00020349  00000+0  69679-3 0  9996
2 65211  53.1604  51.4991 0001651  61.4838 298.6329 15.30222602 48327
STARLINK-34897          
1 65212U 25176Q   26167.99650900  .00002333  00000+0  80193-4 0  9992
2 65212  53.1597  50.1219 0001024  84.2844 275.8275 15.34383500 48340
STARLINK-34907          
1 65213U 25176R   26168.08688447  .00029847  00000+0  89231-3 0  9991
2 65213  53.1598  49.9744 0001092  81.0761 279.0365 15.34353239 48352
STARLINK-34511          
1 65214U 25176S   26167.95031734  .00012857  00000+0  39096-3 0  9995
2 65214  53.1601  50.5504 0000947  74.5527 285.5580 15.34404356 48274
STARLINK-33913          
1 65215U 25176T   26167.94035955  .00018698  00000+0  56305-3 0  9995
2 65215  53.1606  52.6111 0001472  87.2404 272.8767 15.34405168 48308
STARLINK-34302          
1 65216U 25176U   26167.93558832  .00015671  00000+0  47391-3 0  9992
2 65216  53.1610  50.4521 0001579  97.0807 263.0375 15.34404016 48330
STARLINK-34871          
1 65217U 25176V   26167.91244476  .00031852  00000+0  94954-3 0  9993
2 65217  53.1593  50.3114 0001292 107.9671 252.1472 15.34409698 48338
STARLINK-34833          
1 65218U 25176W   26168.14361473  .00027860  00000+0  83254-3 0  9992
2 65218  53.1592  49.6152 0001137  87.1150 272.9982 15.34403295 48366
STARLINK-34960          
1 65219U 25176X   26167.96714872  .00021283  00000+0  63893-3 0  9997
2 65219  53.1583  50.6481 0000877  85.1813 274.9289 15.34414986 48336
STARLINK-34603          
1 65220U 25176Y   26167.98179044  .00027526  00000+0  82282-3 0  9996
2 65220  53.1594  50.0302 0001514  76.4688 283.6483 15.34399819 48349
STARLINK-34974          
1 65221U 25176Z   26167.99231015  .00030651  00000+0  91435-3 0  9998
2 65221  53.1604  50.0919 0001440  92.1322 267.9846 15.34408222 48341
STARLINK-34999          
1 65222U 25176AA  26167.96504495  .00019674  00000+0  59159-3 0  9990
2 65222  53.1584  50.6369 0001151  95.6217 264.4917 15.34415510 48332
STARLINK-34996          
1 65223U 25176AB  26167.96293935  .00023263  00000+0  69720-3 0  9999
2 65223  53.1589  50.6196 0001139  85.9156 274.1977 15.34414141 48339
