OBJECT_NAME,OBJECT_ID,EPOCH,MEAN_MOTION,ECCENTRICITY,INCLINATION,RA_OF_ASC_NODE,ARG_OF_PERICENTER,MEAN_ANOMALY,EPHEMERIS_TYPE,CLASSIFICATION_TYPE,NORAD_CAT_ID,ELEMENT_SET_NO,REV_AT_EPOCH,BSTAR,MEAN_MOTION_DOT,MEAN_MOTION_DDOT
STARLINK-34926,2025-175W,2026-06-17T02:26:21.436800,15.05659699,.0002468,97.3533,39.7285,88.0382,272.1128,0,U,65194,999,4757,.21743E-3,.3082E-4,0
STARLINK-34928,2025-175X,2026-06-17T02:30:20.516832,15.05661574,.0002602,97.3531,39.7239,73.9602,286.1912,0,U,65195,999,4760,.26026E-3,.3701E-4,0
STARLINK-34927,2025-175Y,2026-06-16T21:51:13.005216,15.05659252,.000228,97.3525,39.5299,87.8529,272.2960,0,U,65196,999,4757,.28227E-3,.4019E-4,0
STARLINK-34952,2025-175Z,2026-06-16T13:48:43.761600,15.05664100,.0002598,97.3549,39.2154,84.1069,276.0455,0,U,65197,999,4752,.34098E-3,.4868E-4,0
STARLINK-34981,2025-176A,2026-06-16T23:48:42.994656,15.30210612,.0001311,53.1590,54.3414,77.4320,282.6827,0,U,65198,999,4828,.47492E-3,.13737E-3,0
STARLINK-34821,2025-176B,2026-06-16T23:21:39.378816,15.34411246,.0001033,53.1586,49.9857,97.7035,262.4085,0,U,65199,999,4827,.7982E-3,.26698E-3,0
STARLINK-34865,2025-176C,2026-06-16T23:00:34.513056,15.34423125,.0001288,53.1598,50.6046,83.2568,276.8581,0,U,65200,999,4833,.9103E-3,.30528E-3,0
STARLINK-34843,2025-176D,2026-06-16T23:42:51.838272,15.34396194,.000123,53.1594,50.0705,88.5456,271.5687,0,U,65201,999,4834,.80839E-3,.27032E-3,0
STARLINK-34905,2025-176E,2026-06-16T23:45:53.680896,15.34402729,.0001181,53.1583,50.0849,74.3175,285.7958,0,U,65202,999,4834,.39744E-3,.13076E-3,0
STARLINK-34914,2025-176F,2026-06-16T23:39:50.266944,15.34405723,.0001513,53.1588,50.0592,82.4170,277.7005,0,U,65203,999,4834,.44127E-3,.14565E-3,0
STARLINK-34787,2025-176G,2026-06-16T23:18:37.467072,15.34410071,.0001224,53.1586,49.9655,101.0225,259.0915,0,U,65204,999,4834,.96959E-3,.32536E-3,0
STARLINK-34796,2025-176H,2026-06-16T22:39:22.049280,15.34421278,.000147,53.1612,50.5110,82.5628,277.5542,0,U,65205,999,4833,.91066E-3,.30538E-3,0
STARLINK-34763,2025-176J,2026-06-16T22:33:18.427104,15.34399548,.0001026,53.1606,50.4804,78.8132,281.2986,0,U,65206,999,4832,.75107E-3,.25084E-3,0
STARLINK-34901,2025-176K,2026-06-16T22:54:30.857184,15.34422444,.0001051,53.1601,50.5747,93.7892,266.3231,0,U,65207,999,4833,.87252E-3,.29239E-3,0
STARLINK-34841,2025-176L,2026-06-16T23:36:48.534048,15.34415430,.0001448,53.1589,50.0521,92.2992,267.8176,0,U,65208,999,4834,.57233E-3,.19019E-3,0
STARLINK-34976,2025-176M,2026-06-16T22:30:16.904160,15.34397964,.0001271,53.1599,50.4652,96.6732,263.4415,0,U,65209,999,4833,.82749E-3,.27683E-3,0
STARLINK-34941,2025-176N,2026-06-16T22:51:29.316096,15.34416817,.0001324,53.1605,50.5618,81.1541,278.9611,0,U,65210,999,4833,.85797E-3,.28738E-3,0
STARLINK-34847,2025-176P,2026-06-16T23:46:15.980736,15.30222602,.0001651,53.1604,51.4991,61.4838,298.6329,0,U,65211,999,4832,.69679E-3,.20349E-3,0
STARLINK-34897,2025-176Q,2026-06-16T23:54:58.377600,15.34383500,.0001024,53.1597,50.1219,84.2844,275.8275,0,U,65212,999,4834,.80193E-4,.2333E-4,0
STARLINK-34907,2025-176R,2026-06-17T02:05:06.818208,15.34353239,.0001092,53.1598,49.9744,81.0761,279.0365,0,U,65213,999,4835,.89231E-3,.29847E-3,0
STARLINK-34511,2025-176S,2026-06-16T22:48:27.418176,15.34404356,.0000947,53.1601,50.5504,74.5527,285.5580,0,U,65214,999,4827,.39096E-3,.12857E-3,0
STARLINK-33913,2025-176T,2026-06-16T22:34:07.065120,15.34405168,.0001472,53.1606,52.6111,87.2404,272.8767,0,U,65215,999,4830,.56305E-3,.18698E-3,0
STARLINK-34302,2025-176U,2026-06-16T22:27:14.830848,15.34404016,.0001579,53.1610,50.4521,97.0807,263.0375,0,U,65216,999,4833,.47391E-3,.15671E-3,0
STARLINK-34871,2025-176V,2026-06-16T21:53:55.227264,15.34409698,.0001292,53.1593,50.3114,107.9671,252.1472,0,U,65217,999,4833,.94954E-3,.31852E-3,0
STARLINK-34833,2025-176W,2026-06-17T03:26:48.312672,15.34403295,.0001137,53.1592,49.6152,87.1150,272.9982,0,U,65218,999,4836,.83254E-3,.2786E-3,0
STARLINK-34960,2025-176X,2026-06-16T23:12:41.649408,15.34414986,.0000877,53.1583,50.6481,85.1813,274.9289,0,U,65219,999,4833,.63893E-3,.21283E-3,0
STARLINK-34603,2025-176Y,2026-06-16T23:33:46.694016,15.34399819,.0001514,53.1594,50.0302,76.4688,283.6483,0,U,65220,999,4834,.82282E-3,.27526E-3,0
STARLINK-34974,2025-176Z,2026-06-16T23:48:55.596960,15.34408222,.000144,53.1604,50.0919,92.1322,267.9846,0,U,65221,999,4834,.91435E-3,.30651E-3,0
STARLINK-34999,2025-176AA,2026-06-16T23:09:39.883680,15.34415510,.0001151,53.1584,50.6369,95.6217,264.4917,0,U,65222,999,4833,.59159E-3,.19674E-3,0
STARLINK-34996,2025-176AB,2026-06-16T23:06:37.959840,15.34414141,.0001139,53.1589,50.6196,85.9156,274.1977,0,U,65223,999,4833,.6972E-3,.23263E-3,0
